[{"OBJECT_NAME":"ONEWEB-0684","OBJECT_ID":"2023-068L","EPOCH":"2026-06-13T06:15:04.771296","MEAN_MOTION":13.15548405,"ECCENTRICITY":0.0001272,"INCLINATION":87.9009,"RA_OF_ASC_NODE":259.9656,"ARG_OF_PERICENTER":143.0931,"MEAN_ANOMALY":217.0287,"EPHEMERIS_TYPE":0,"CLASSIFICATION_TYPE":"U","NORAD_CAT_ID":56720,"ELEMENT_SET_NO":999,"REV_AT_EPOCH":14873,"BSTAR":0.00046848,"MEAN_MOTION_DOT":1.89e-06,"MEAN_MOTION_DDOT":0.0},{"OBJECT_NAME":"ONEWEB-0686","OBJECT_ID":"2023-068M","EPOCH":"2026-06-12T20:56:04.388928","MEAN_MOTION":13.16594742,"ECCENTRICITY":0.0002162,"INCLINATION":87.9092,"RA_OF_ASC_NODE":229.6503,"ARG_OF_PERICENTER":107.2875,"MEAN_ANOMALY":252.8493,"EPHEMERIS_TYPE":0,"CLASSIFICATION_TYPE":"U","NORAD_CAT_ID":56721,"ELEMENT_SET_NO":999,"REV_AT_EPOCH":15114,"BSTAR":9.8305e-05,"MEAN_MOTION_DOT":5e-07,"MEAN_MOTION_DDOT":0.0},{"OBJECT_NAME":"ONEWEB-0694","OBJECT_ID":"2023-068N","EPOCH":"2026-06-13T06:12:21.988512","MEAN_MOTION":13.16594537,"ECCENTRICITY":0.000252,"INCLINATION":87.9112,"RA_OF_ASC_NODE":229.5374,"ARG_OF_PERICENTER":100.4993,"MEAN_ANOMALY":259.6422,"EPHEMERIS_TYPE":0,"CLASSIFICATION_TYPE":"U","NORAD_CAT_ID":56722,"ELEMENT_SET_NO":999,"REV_AT_EPOCH":15125,"BSTAR":0.00015846,"MEAN_MOTION_DOT":7.3e-07,"MEAN_MOTION_DDOT":0.0},{"OBJECT_NAME":"ONEWEB-0696","OBJECT_ID":"2023-068P","EPOCH":"2026-06-13T05:13:26.639616","MEAN_MOTION":13.15546639,"ECCENTRICITY":0.0001496,"INCLINATION":87.9,"RA_OF_ASC_NODE":260.0126,"ARG_OF_PERICENTER":99.6954,"MEAN_ANOMALY":260.4346,"EPHEMERIS_TYPE":0,"CLASSIFICATION_TYPE":"U","NORAD_CAT_ID":56723,"ELEMENT_SET_NO":999,"REV_AT_EPOCH":14884,"BSTAR":-0.00016802,"MEAN_MOTION_DOT":-5e-07,"MEAN_MOTION_DDOT":0.0},{"OBJECT_NAME":"ONEWEB-0703","OBJECT_ID":"2023-068Q","EPOCH":"2026-06-13T07:16:41.127456","MEAN_MOTION":13.15548875,"ECCENTRICITY":0.0001237,"INCLINATION":87.9,"RA_OF_ASC_NODE":259.9769,"ARG_OF_PERICENTER":84.0331,"MEAN_ANOMALY":276.094,"EPHEMERIS_TYPE":0,"CLASSIFICATION_TYPE":"U","NORAD_CAT_ID":56724,"ELEMENT_SET_NO":999,"REV_AT_EPOCH":14874,"BSTAR":-0.00010474,"MEAN_MOTION_DOT":-2.7e-07,"MEAN_MOTION_DDOT":0.0},{"OBJECT_NAME":"ONEWEB-0721","OBJECT_ID":"2023-068R","EPOCH":"2026-06-13T04:56:05.218944","MEAN_MOTION":13.22469319,"ECCENTRICITY":0.0001918,"INCLINATION":86.6768,"RA_OF_ASC_NODE":86.7871,"ARG_OF_PERICENTER":77.8848,"MEAN_ANOMALY":282.25,"EPHEMERIS_TYPE":0,"CLASSIFICATION_TYPE":"U","NORAD_CAT_ID":56725,"ELEMENT_SET_NO":999,"REV_AT_EPOCH":15741,"BSTAR":0.0001873,"MEAN_MOTION_DOT":9.3e-07,"MEAN_MOTION_DDOT":0.0},{"OBJECT_NAME":"ONEWEB-0015","OBJECT_ID":"2024-188A","EPOCH":"2026-06-13T02:42:54.825984","MEAN_MOTION":13.11419691,"ECCENTRICITY":0.0002274,"INCLINATION":87.8891,"RA_OF_ASC_NODE":21.9043,"ARG_OF_PERICENTER":75.523,"MEAN_ANOMALY":284.615,"EPHEMERIS_TYPE":0,"CLASSIFICATION_TYPE":"U","NORAD_CAT_ID":61594,"ELEMENT_SET_NO":999,"REV_AT_EPOCH":8392,"BSTAR":8.5629e-05,"MEAN_MOTION_DOT":4.3e-07,"MEAN_MOTION_DDOT":0.0},{"OBJECT_NAME":"ONEWEB-0687","OBJECT_ID":"2024-188B","EPOCH":"2026-06-13T06:46:13.383840","MEAN_MOTION":13.1764742,"ECCENTRICITY":0.0002376,"INCLINATION":87.9129,"RA_OF_ASC_NODE":6.6538,"ARG_OF_PERICENTER":88.6602,"MEAN_ANOMALY":271.4802,"EPHEMERIS_TYPE":0,"CLASSIFICATION_TYPE":"U","NORAD_CAT_ID":61595,"ELEMENT_SET_NO":999,"REV_AT_EPOCH":8538,"BSTAR":-6.7416e-05,"MEAN_MOTION_DOT":-1.3e-07,"MEAN_MOTION_DDOT":0.0},{"OBJECT_NAME":"ONEWEB-0688","OBJECT_ID":"2024-188C","EPOCH":"2026-06-13T01:59:29.387328","MEAN_MOTION":13.17648653,"ECCENTRICITY":0.0002818,"INCLINATION":87.9128,"RA_OF_ASC_NODE":6.6932,"ARG_OF_PERICENTER":68.2997,"MEAN_ANOMALY":291.8435,"EPHEMERIS_TYPE":0,"CLASSIFICATION_TYPE":"U","NORAD_CAT_ID":61596,"ELEMENT_SET_NO":999,"REV_AT_EPOCH":8535,"BSTAR":0.00022948,"MEAN_MOTION_DOT":1.02e-06,"MEAN_MOTION_DDOT":0.0},{"OBJECT_NAME":"ONEWEB-0689","OBJECT_ID":"2024-188D","EPOCH":"2026-06-13T01:41:52.757664","MEAN_MOTION":13.11416593,"ECCENTRICITY":0.0002016,"INCLINATION":87.8902,"RA_OF_ASC_NODE":21.8699,"ARG_OF_PERICENTER":92.0438,"MEAN_ANOMALY":268.0921,"EPHEMERIS_TYPE":0,"CLASSIFICATION_TYPE":"U","NORAD_CAT_ID":61597,"ELEMENT_SET_NO":999,"REV_AT_EPOCH":8391,"BSTAR":0.00061639,"MEAN_MOTION_DOT":2.31e-06,"MEAN_MOTION_DDOT":0.0},{"OBJECT_NAME":"ONEWEB-0690","OBJECT_ID":"2024-188E","EPOCH":"2026-06-13T01:56:31.540704","MEAN_MOTION":13.11414051,"ECCENTRICITY":0.0001327,"INCLINATION":87.8896,"RA_OF_ASC_NODE":21.8798,"ARG_OF_PERICENTER":69.0217,"MEAN_ANOMALY":291.1053,"EPHEMERIS_TYPE":0,"CLASSIFICATION_TYPE":"U","NORAD_CAT_ID":61598,"ELEMENT_SET_NO":999,"REV_AT_EPOCH":8409,"BSTAR":-0.0006634400000000001,"MEAN_MOTION_DOT":-2.22e-06,"MEAN_MOTION_DDOT":0.0},{"OBJECT_NAME":"ONEWEB-0691","OBJECT_ID":"2024-188F","EPOCH":"2026-06-13T01:49:13.009728","MEAN_MOTION":13.11414849,"ECCENTRICITY":0.0002169,"INCLINATION":87.8906,"RA_OF_ASC_NODE":21.7892,"ARG_OF_PERICENTER":80.18,"MEAN_ANOMALY":279.9572,"EPHEMERIS_TYPE":0,"CLASSIFICATION_TYPE":"U","NORAD_CAT_ID":61599,"ELEMENT_SET_NO":999,"REV_AT_EPOCH":8394,"BSTAR":3.3363e-05,"MEAN_MOTION_DOT":2.5e-07,"MEAN_MOTION_DDOT":0.0},{"OBJECT_NAME":"ONEWEB-0692","OBJECT_ID":"2024-188G","EPOCH":"2026-06-13T02:18:29.348928","MEAN_MOTION":13.11416732,"ECCENTRICITY":0.0001738,"INCLINATION":87.8888,"RA_OF_ASC_NODE":21.8993,"ARG_OF_PERICENTER":111.4351,"MEAN_ANOMALY":248.6962,"EPHEMERIS_TYPE":0,"CLASSIFICATION_TYPE":"U","NORAD_CAT_ID":61600,"ELEMENT_SET_NO":999,"REV_AT_EPOCH":8393,"BSTAR":-0.0017354,"MEAN_MOTION_DOT":-6.02e-06,"MEAN_MOTION_DDOT":0.0},{"OBJECT_NAME":"ONEWEB-0693","OBJECT_ID":"2024-188H","EPOCH":"2026-06-13T02:16:29.585568","MEAN_MOTION":13.1764803,"ECCENTRICITY":0.000143,"INCLINATION":87.9126,"RA_OF_ASC_NODE":6.7108,"ARG_OF_PERICENTER":63.3148,"MEAN_ANOMALY":296.813,"EPHEMERIS_TYPE":0,"CLASSIFICATION_TYPE":"U","NORAD_CAT_ID":61601,"ELEMENT_SET_NO":999,"REV_AT_EPOCH":8534,"BSTAR":0.00012265,"MEAN_MOTION_DOT":6e-07,"MEAN_MOTION_DDOT":0.0},{"OBJECT_NAME":"ONEWEB-0695","OBJECT_ID":"2024-188J","EPOCH":"2026-06-13T01:44:19.796640","MEAN_MOTION":13.11414432,"ECCENTRICITY":0.0001978,"INCLINATION":87.8887,"RA_OF_ASC_NODE":21.8958,"ARG_OF_PERICENTER":100.849,"MEAN_ANOMALY":259.2861,"EPHEMERIS_TYPE":0,"CLASSIFICATION_TYPE":"U","NORAD_CAT_ID":61602,"ELEMENT_SET_NO":999,"REV_AT_EPOCH":8392,"BSTAR":0.00051676,"MEAN_MOTION_DOT":1.96e-06,"MEAN_MOTION_DDOT":0.0},{"OBJECT_NAME":"ONEWEB-0697","OBJECT_ID":"2024-188K","EPOCH":"2026-06-13T02:30:41.949216","MEAN_MOTION":13.11419967,"ECCENTRICITY":0.0001614,"INCLINATION":87.8891,"RA_OF_ASC_NODE":21.8798,"ARG_OF_PERICENTER":109.9593,"MEAN_ANOMALY":250.1709,"EPHEMERIS_TYPE":0,"CLASSIFICATION_TYPE":"U","NORAD_CAT_ID":61603,"ELEMENT_SET_NO":999,"REV_AT_EPOCH":8391,"BSTAR":-0.00072121,"MEAN_MOTION_DOT":-2.43e-06,"MEAN_MOTION_DDOT":0.0},{"OBJECT_NAME":"ONEWEB-0698","OBJECT_ID":"2024-188L","EPOCH":"2026-06-13T01:58:57.707904","MEAN_MOTION":13.114144,"ECCENTRICITY":7.49e-05,"INCLINATION":87.8886,"RA_OF_ASC_NODE":21.8982,"ARG_OF_PERICENTER":110.4432,"MEAN_ANOMALY":249.6777,"EPHEMERIS_TYPE":0,"CLASSIFICATION_TYPE":"U","NORAD_CAT_ID":61604,"ELEMENT_SET_NO":999,"REV_AT_EPOCH":8393,"BSTAR":-0.00069604,"MEAN_MOTION_DOT":-2.34e-06,"MEAN_MOTION_DDOT":0.0}]