ONEWEB-0684             
1 56720U 23068L   26164.26047189  .00000189  00000+0  46848-3 0  9995
2 56720  87.9009 259.9656 0001272 143.0931 217.0287 13.15548405148736
ONEWEB-0686             
1 56721U 23068M   26163.87227302  .00000050  00000+0  98305-4 0  9992
2 56721  87.9092 229.6503 0002162 107.2875 252.8493 13.16594742151143
ONEWEB-0694             
1 56722U 23068N   26164.25858783  .00000073  00000+0  15846-3 0  9992
2 56722  87.9112 229.5374 0002520 100.4993 259.6422 13.16594537151257
ONEWEB-0696             
1 56723U 23068P   26164.21766944 -.00000050  00000+0 -16802-3 0  9996
2 56723  87.9000 260.0126 0001496  99.6954 260.4346 13.15546639148841
ONEWEB-0703             
1 56724U 23068Q   26164.30325379 -.00000027  00000+0 -10474-3 0  9993
2 56724  87.9000 259.9769 0001237  84.0331 276.0940 13.15548875148748
ONEWEB-0721             
1 56725U 23068R   26164.20561596  .00000093  00000+0  18730-3 0  9990
2 56725  86.6768  86.7871 0001918  77.8848 282.2500 13.22469319157413
ONEWEB-0015             
1 61594U 24188A   26164.11313456  .00000043  00000+0  85629-4 0  9991
2 61594  87.8891  21.9043 0002274  75.5230 284.6150 13.11419691 83928
ONEWEB-0687             
1 61595U 24188B   26164.28209935 -.00000013  00000+0 -67416-4 0  9999
2 61595  87.9129   6.6538 0002376  88.6602 271.4802 13.17647420 85383
ONEWEB-0688             
1 61596U 24188C   26164.08297902  .00000102  00000+0  22948-3 0  9996
2 61596  87.9128   6.6932 0002818  68.2997 291.8435 13.17648653 85357
ONEWEB-0689             
1 61597U 24188D   26164.07074951  .00000231  00000+0  61639-3 0  9996
2 61597  87.8902  21.8699 0002016  92.0438 268.0921 13.11416593 83917
ONEWEB-0690             
1 61598U 24188E   26164.08092061 -.00000222  00000+0 -66344-3 0  9990
2 61598  87.8896  21.8798 0001327  69.0217 291.1053 13.11414051 84093
ONEWEB-0691             
1 61599U 24188F   26164.07584502  .00000025  00000+0  33363-4 0  9991
2 61599  87.8906  21.7892 0002169  80.1800 279.9572 13.11414849 83945
ONEWEB-0692             
1 61600U 24188G   26164.09617302 -.00000602  00000+0 -17354-2 0  9994
2 61600  87.8888  21.8993 0001738 111.4351 248.6962 13.11416732 83938
ONEWEB-0693             
1 61601U 24188H   26164.09478687  .00000060  00000+0  12265-3 0  9999
2 61601  87.9126   6.7108 0001430  63.3148 296.8130 13.17648030 85346
ONEWEB-0695             
1 61602U 24188J   26164.07245135  .00000196  00000+0  51676-3 0  9997
2 61602  87.8887  21.8958 0001978 100.8490 259.2861 13.11414432 83922
ONEWEB-0697             
1 61603U 24188K   26164.10465219 -.00000243  00000+0 -72121-3 0  9992
2 61603  87.8891  21.8798 0001614 109.9593 250.1709 13.11419967 83919
ONEWEB-0698             
1 61604U 24188L   26164.08261236 -.00000234  00000+0 -69604-3 0  9995
2 61604  87.8886  21.8982 0000749 110.4432 249.6777 13.11414400 83933
